IRIDIUM 136             
1 42962U 17061H   23347.56498457  .00000259  00000+0  85254-4 0  9998
2 42962  86.3978  48.3102 0002237 103.9334 256.2111 14.34219802323450
